PLEIADES NEO 3          
1 48268U 21034A   26201.95186535  .00000080  00000+0  16824-4 0  9993
2 48268  97.8937 276.2330 0001366  98.1626 261.9742 14.81660784282653
PLEIADES NEO 4          
1 49070U 21073E   26201.91807266  .00000691  00000+0  94436-4 0  9998
2 49070  97.8935 276.1957 0001388  95.8500 264.2872 14.81674731266363
